NORAD_CAT_ID,OBJECT_NAME,OBJECT_TYPE,EPOCH,MEAN_MOTION,ECCENTRICITY,INCLINATION,RA_OF_ASC_NODE,ARG_OF_PERICENTER,MEAN_ANOMALY,BSTAR,MEAN_MOTION_DOT,MEAN_MOTION_DDOT,TLE_LINE0,TLE_LINE1,TLE_LINE2,SEMIMAJOR_AXIS,PERIOD,APOGEE,PERIGEE,DECAYED
51995.0,STARLINK-3636,PAYLOAD,2024-06-29 12:34:08,15.08825947,0.0001094,53.2152,274.1758,94.6758,265.4359,-9.1982e-05,-1.751e-05,0.0,0 STARLINK-3636,1 51995U 22025AR  24181.52371128 -.00001751  00000-0 -91982-4 0  9994,2 51995  53.2152 274.1758 0001094  94.6758 265.4359 15.08825947129102,6917.923,95.438,540.545,539.032,0.0
51995.0,STARLINK-3636,PAYLOAD,2024-06-29 15:44:54,15.08831232,0.0001353,53.2167,273.5798,83.4101,276.7045,-8.9526e-06,-4.3e-06,0.0,0 STARLINK-3636,1 51995U 22025AR  24181.65618716 -.00000430  00000-0 -89526-5 0  9990,2 51995  53.2167 273.5798 0001353  83.4101 276.7045 15.08831232129124,6917.907,95.438,540.708,538.836,0.0
51995.0,STARLINK-3636,PAYLOAD,2024-06-29 23:41:49,15.0884031,0.0001426,53.2175,272.0934,81.1185,278.9969,2.7444e-05,1.49e-06,0.0,0 STARLINK-3636,1 51995U 22025AR  24181.98738147  .00000149  00000-0  27444-4 0  9992,2 51995  53.2175 272.0934 0001426  81.1185 278.9969 15.08840310129178,6917.879,95.438,540.731,538.758,0.0
51995.0,STARLINK-3636,PAYLOAD,2024-06-30 12:24:55,15.08834701,0.0001168,53.2183,269.7146,84.5251,275.5874,5.4788e-05,5.84e-06,0.0,0 STARLINK-3636,1 51995U 22025AR  24182.51730552  .00000584  00000-0  54788-4 0  9998,2 51995  53.2183 269.7146 0001168  84.5251 275.5874 15.08834701127734,6917.897,95.438,540.57,538.954,0.0
51995.0,STARLINK-3636,PAYLOAD,2024-06-30 15:35:41,15.08848449,0.0001471,53.2179,269.1199,84.478,275.638,-3.3517e-05,-8.22e-06,0.0,0 STARLINK-3636,1 51995U 22025AR  24182.64978046 -.00000822  00000-0 -33517-4 0  9998,2 51995  53.2179 269.1199 0001471  84.4780 275.6380 15.08848449127753,6917.855,95.437,540.737,538.702,0.0
51995.0,STARLINK-3636,PAYLOAD,2024-07-01 12:15:42,15.08836831,0.000142,53.217,265.2526,85.5796,274.5359,8.4904e-05,1.063e-05,0.0,0 STARLINK-3636,1 51995U 22025AR  24183.51090440  .00001063  00000-0  84904-4 0  9990,2 51995  53.2170 265.2526 0001420  85.5796 274.5359 15.08836831129408,6917.89,95.438,540.737,538.773,0.0
51995.0,STARLINK-3636,PAYLOAD,2024-07-02 12:06:29,15.08834837,0.0001291,53.2159,260.7909,71.4315,288.6818,2.8991e-05,1.73e-06,0.0,0 STARLINK-3636,1 51995U 22025AR  24184.50451099  .00000173  00000-0  28991-4 0  9996,2 51995  53.2159 260.7909 0001291  71.4315 288.6818 15.08834837129553,6917.896,95.438,540.654,538.868,0.0
51995.0,STARLINK-3636,PAYLOAD,2024-07-03 11:57:16,15.08841586,0.0001233,53.216,256.3341,81.0338,279.0794,8.3247e-05,1.037e-05,0.0,0 STARLINK-3636,1 51995U 22025AR  24185.49810638  .00001037  00000-0  83247-4 0  9998,2 51995  53.2160 256.3341 0001233  81.0338 279.0794 15.08841586129707,6917.876,95.437,540.594,538.888,0.0
51995.0,STARLINK-3636,PAYLOAD,2024-07-03 21:29:34,15.08845997,0.0001233,53.216,254.5495,79.4798,280.6333,0.000107,1.416e-05,0.0,0 STARLINK-3636,1 51995U 22025AR  24185.89554235  .00001416  00000-0  10700-3 0  9994,2 51995  53.2160 254.5495 0001233  79.4798 280.6333 15.08845997128243,6917.862,95.437,540.58,538.874,0.0
51995.0,STARLINK-3636,PAYLOAD,2024-07-04 11:48:04,15.08832606,0.0001293,53.2165,251.8743,89.1509,270.9631,7.4469e-05,8.97e-06,0.0,0 STARLINK-3636,1 51995U 22025AR  24186.49171355  .00000897  00000-0  74469-4 0  9994,2 51995  53.2165 251.8743 0001293  89.1509 270.9631 15.08832606129852,6917.903,95.438,540.662,538.874,0.0
51995.0,STARLINK-3636,PAYLOAD,2024-07-04 13:23:27,15.0883427,0.0001351,53.2168,251.5774,93.1779,266.9368,9.0422e-05,1.151e-05,0.0,0 STARLINK-3636,1 51995U 22025AR  24186.55795255  .00001151  00000-0  90422-4 0  9993,2 51995  53.2168 251.5774 0001351  93.1779 266.9368 15.08834270128349,6917.898,95.438,540.698,538.828,0.0
51995.0,STARLINK-3636,PAYLOAD,2024-07-04 21:20:22,15.08845122,0.0001328,53.2166,250.0898,84.5244,275.59,0.00014472,2.016e-05,0.0,0 STARLINK-3636,1 51995U 22025AR  24186.88914556  .00002016  00000-0  14472-3 0  9997,2 51995  53.2166 250.0898 0001328  84.5244 275.5900 15.08845122128394,6917.865,95.437,540.648,538.811,0.0
51995.0,STARLINK-3636,PAYLOAD,2024-07-05 11:38:50,15.08845059,0.0001337,53.2167,247.4137,85.4999,274.6145,7.1821e-05,8.55e-06,0.0,0 STARLINK-3636,1 51995U 22025AR  24187.48530783  .00000855  00000-0  71821-4 0  9991,2 51995  53.2167 247.4137 0001337  85.4999 274.6145 15.08845059128488,6917.865,95.437,540.655,538.805,0.0
51995.0,STARLINK-3636,PAYLOAD,2024-07-05 21:11:08,15.08849975,0.0001402,53.2161,245.6299,82.8464,277.2687,0.00014487,2.019e-05,0.0,0 STARLINK-3636,1 51995U 22025AR  24187.88274230  .00002019  00000-0  14487-3 0  9995,2 51995  53.2161 245.6299 0001402  82.8464 277.2687 15.08849975128540,6917.85,95.437,540.685,538.745,0.0
51995.0,STARLINK-3636,PAYLOAD,2024-07-06 03:32:42,15.08829112,0.0001491,53.2168,244.44,84.8538,275.2624,-2.3659e-05,-6.64e-06,0.0,0 STARLINK-3636,1 51995U 22025AR  24188.14771338 -.00000664  00000-0 -23659-4 0  9994,2 51995  53.2168 244.4400 0001491  84.8538 275.2624 15.08829112130105,6917.914,95.438,540.81,538.747,0.0
51995.0,STARLINK-3636,PAYLOAD,2024-07-06 09:54:14,15.08834177,0.00014,53.2152,243.2509,84.1132,276.0019,-2.5513e-05,-6.94e-06,0.0,0 STARLINK-3636,1 51995U 22025AR  24188.41267187 -.00000694  00000-0 -25513-4 0  9990,2 51995  53.2152 243.2509 0001400  84.1132 276.0019 15.08834177128626,6917.898,95.438,540.732,538.795,0.0
51995.0,STARLINK-3636,PAYLOAD,2024-07-06 21:01:56,15.08840673,0.0001452,53.2154,241.1693,84.6727,275.4431,4.3267e-05,4.01e-06,0.0,0 STARLINK-3636,1 51995U 22025AR  24188.87634946  .00000401  00000-0  43267-4 0  9991,2 51995  53.2154 241.1693 0001452  84.6727 275.4431 15.08840673128697,6917.878,95.438,540.748,538.739,0.0
51995.0,STARLINK-3636,PAYLOAD,2024-07-07 03:23:29,15.08840801,0.0001476,53.2157,239.9803,84.9768,275.1393,5.3073e-05,5.57e-06,0.0,0 STARLINK-3636,1 51995U 22025AR  24189.14130988  .00000557  00000-0  53073-4 0  9997,2 51995  53.2157 239.9803 0001476  84.9768 275.1393 15.08840801130254,6917.878,95.438,540.764,538.722,0.0
51995.0,STARLINK-3636,PAYLOAD,2024-07-07 09:45:01,15.08843367,0.0001396,53.2153,238.7891,93.3113,266.8039,8.3438e-05,1.04e-05,0.0,0 STARLINK-3636,1 51995U 22025AR  24189.40626879  .00001040  00000-0  83438-4 0  9991,2 51995  53.2153 238.7891 0001396  93.3113 266.8039 15.08843367128771,6917.87,95.437,540.701,538.769,0.0
51995.0,STARLINK-3636,PAYLOAD,2024-07-08 09:35:48,15.08843148,0.0001493,53.2155,234.3283,94.754,265.3623,0.00018992,2.736e-05,0.0,0 STARLINK-3636,1 51995U 22025AR  24190.39986961  .00002736  00000-0  18992-3 0  9997,2 51995  53.2155 234.3283 0001493  94.7540 265.3623 15.08843148130444,6917.871,95.437,540.769,538.703,0.0
51995.0,STARLINK-3636,PAYLOAD,2024-07-09 09:26:35,15.08839897,0.0001413,53.2151,229.8684,90.345,269.7704,4.6476e-05,4.52e-06,0.0,0 STARLINK-3636,1 51995U 22025AR  24191.39346938  .00000452  00000-0  46476-4 0  9994,2 51995  53.2151 229.8684 0001413  90.3450 269.7704 15.08839897130598,6917.881,95.438,540.723,538.768,0.0
51995.0,STARLINK-3636,PAYLOAD,2024-07-10 12:28:09,15.08834102,0.0001317,53.2155,224.8115,85.2353,274.879,-1.0333e-05,-4.52e-06,0.0,0 STARLINK-3636,1 51995U 22025AR  24192.51955610 -.00000452  00000-0 -10333-4 0  9997,2 51995  53.2155 224.8115 0001317  85.2353 274.8790 15.08834102130769,6917.898,95.438,540.675,538.852,0.0
51995.0,STARLINK-3636,PAYLOAD,2024-07-11 10:43:33,15.08838937,0.0001283,53.2156,220.6488,86.2138,273.9,8.9353e-05,1.134e-05,0.0,0 STARLINK-3636,1 51995U 22025AR  24193.44691230  .00001134  00000-0  89353-4 0  9999,2 51995  53.2156 220.6488 0001283  86.2138 273.9000 15.08838937129381,6917.884,95.438,540.636,538.861,0.0
51995.0,STARLINK-3636,PAYLOAD,2024-07-11 18:40:28,15.08842091,0.000127,53.2156,219.1619,84.978,275.1357,0.00012075,1.634e-05,0.0,0 STARLINK-3636,1 51995U 22025AR  24193.77810971  .00001634  00000-0  12075-3 0  9991,2 51995  53.2156 219.1619 0001270  84.9780 275.1357 15.08842091130954,6917.874,95.437,540.618,538.86,0.0
51995.0,STARLINK-3636,PAYLOAD,2024-07-12 10:34:20,15.08838706,0.0001369,53.2162,216.19,95.2025,264.9123,0.00012539,1.708e-05,0.0,0 STARLINK-3636,1 51995U 22025AR  24194.44051397  .00001708  00000-0  12539-3 0  9992,2 51995  53.2162 216.1900 0001369  95.2025 264.9123 15.08838706131054,6917.884,95.438,540.696,538.802,0.0
51995.0,STARLINK-3636,PAYLOAD,2024-07-13 08:49:44,15.08843066,0.0001315,53.2156,212.0295,99.6378,260.4762,5.7689e-05,6.3e-06,0.0,0 STARLINK-3636,1 51995U 22025AR  24195.36787336  .00000630  00000-0  57689-4 0  9992,2 51995  53.2156 212.0295 0001315  99.6378 260.4762 15.08843066129679,6917.871,95.437,540.646,538.826,0.0
51995.0,STARLINK-3636,PAYLOAD,2024-07-13 18:22:03,15.08844077,0.0001427,53.2163,210.2423,86.4176,273.698,5.4081e-05,5.73e-06,0.0,0 STARLINK-3636,1 51995U 22025AR  24195.76531289  .00000573  00000-0  54081-4 0  9999,2 51995  53.2163 210.2423 0001427  86.4176 273.6980 15.08844077131252,6917.868,95.437,540.72,538.746,0.0
51995.0,STARLINK-3636,PAYLOAD,2024-07-14 10:15:54,15.08843036,0.0001353,53.2159,207.2666,93.4469,266.6678,6.3451e-05,7.22e-06,0.0,0 STARLINK-3636,1 51995U 22025AR  24196.42771268  .00000722  00000-0  63451-4 0  9993,2 51995  53.2159 207.2666 0001353  93.4469 266.6678 15.08843036129834,6917.871,95.437,540.672,538.8,0.0
51995.0,STARLINK-3636,PAYLOAD,2024-07-14 18:12:49,15.08844218,0.0001355,53.216,205.7802,92.697,267.4177,7.7534e-05,9.46e-06,0.0,0 STARLINK-3636,1 51995U 22025AR  24196.75891112  .00000946  00000-0  77534-4 0  9995,2 51995  53.2160 205.7802 0001355  92.6970 267.4177 15.08844218129882,6917.867,95.437,540.67,538.795,0.0
51995.0,STARLINK-3636,PAYLOAD,2024-07-15 06:55:55,15.08839794,0.0001398,53.2162,203.4016,94.1411,265.9741,5.4443e-05,5.79e-06,0.0,0 STARLINK-3636,1 51995U 22025AR  24197.28883474  .00000579  00000-0  54443-4 0  9992,2 51995  53.2162 203.4016 0001398  94.1411 265.9741 15.08839794131482,6917.881,95.438,540.713,538.779,0.0
